CCSDS_OMM_VERS = 2.0
CREATION_DATE  = 
ORIGINATOR     = 

OBJECT_NAME    = STARLINK-35573
OBJECT_ID      = 2025-237C
CENTER_NAME    = EARTH
REF_FRAME      = TEME
TIME_SYSTEM    = UTC
MEAN_ELEMENT_THEORY = SGP/SGP4

EPOCH          = 2025-11-15T12:00:02.998944
MEAN_MOTION    = 15.49374885
ECCENTRICITY   = .0001352
INCLINATION    = 53.1603
RA_OF_ASC_NODE = 215.9947
ARG_OF_PERICENTER = 91.9456
MEAN_ANOMALY   = 260.1516

EPHEMERIS_TYPE = 0
CLASSIFICATION_TYPE = U
NORAD_CAT_ID   = 66116
ELEMENT_SET_NO = 999
REV_AT_EPOCH   = 509
BSTAR          = -.26627E-2
MEAN_MOTION_DOT = -.146145E-2
MEAN_MOTION_DDOT = 0

CCSDS_OMM_VERS = 2.0
CREATION_DATE  = 
ORIGINATOR     = 

OBJECT_NAME    = STARLINK-35572
OBJECT_ID      = 2025-237D
CENTER_NAME    = EARTH
REF_FRAME      = TEME
TIME_SYSTEM    = UTC
MEAN_ELEMENT_THEORY = SGP/SGP4

EPOCH          = 2025-11-15T12:00:02.998944
MEAN_MOTION    = 15.48169454
ECCENTRICITY   = .0001107
INCLINATION    = 53.1602
RA_OF_ASC_NODE = 215.9876
ARG_OF_PERICENTER = 124.3883
MEAN_ANOMALY   = 231.1377

EPHEMERIS_TYPE = 0
CLASSIFICATION_TYPE = U
NORAD_CAT_ID   = 66117
ELEMENT_SET_NO = 999
REV_AT_EPOCH   = 509
BSTAR          = -.41984E-1
MEAN_MOTION_DOT = -.2002992E-1
MEAN_MOTION_DDOT = 0

CCSDS_OMM_VERS = 2.0
CREATION_DATE  = 
ORIGINATOR     = 

OBJECT_NAME    = STARLINK-35468
OBJECT_ID      = 2025-237E
CENTER_NAME    = EARTH
REF_FRAME      = TEME
TIME_SYSTEM    = UTC
MEAN_ELEMENT_THEORY = SGP/SGP4

EPOCH          = 2025-11-15T12:00:02.998944
MEAN_MOTION    = 15.41924983
ECCENTRICITY   = .0000861
INCLINATION    = 53.1605
RA_OF_ASC_NODE = 216.0349
ARG_OF_PERICENTER = 82.7549
MEAN_ANOMALY   = 248.8194

EPHEMERIS_TYPE = 0
CLASSIFICATION_TYPE = U
NORAD_CAT_ID   = 66118
ELEMENT_SET_NO = 999
REV_AT_EPOCH   = 509
BSTAR          = -.5838E-1
MEAN_MOTION_DOT = -.2257199E-1
MEAN_MOTION_DDOT = 0

CCSDS_OMM_VERS = 2.0
CREATION_DATE  = 
ORIGINATOR     = 

OBJECT_NAME    = STARLINK-35547
OBJECT_ID      = 2025-237F
CENTER_NAME    = EARTH
REF_FRAME      = TEME
TIME_SYSTEM    = UTC
MEAN_ELEMENT_THEORY = SGP/SGP4

EPOCH          = 2025-11-15T12:00:02.998944
MEAN_MOTION    = 15.49301909
ECCENTRICITY   = .0001184
INCLINATION    = 53.1603
RA_OF_ASC_NODE = 215.9735
ARG_OF_PERICENTER = 109.3421
MEAN_ANOMALY   = 252.3642

EPHEMERIS_TYPE = 0
CLASSIFICATION_TYPE = U
NORAD_CAT_ID   = 66119
ELEMENT_SET_NO = 999
REV_AT_EPOCH   = 509
BSTAR          = -.34587E-3
MEAN_MOTION_DOT = -.19631E-3
MEAN_MOTION_DDOT = 0

CCSDS_OMM_VERS = 2.0
CREATION_DATE  = 
ORIGINATOR     = 

OBJECT_NAME    = STARLINK-35553
OBJECT_ID      = 2025-237G
CENTER_NAME    = EARTH
REF_FRAME      = TEME
TIME_SYSTEM    = UTC
MEAN_ELEMENT_THEORY = SGP/SGP4

EPOCH          = 2025-11-15T12:00:02.998944
MEAN_MOTION    = 15.49295235
ECCENTRICITY   = .0001163
INCLINATION    = 53.1603
RA_OF_ASC_NODE = 215.9823
ARG_OF_PERICENTER = 85.0043
MEAN_ANOMALY   = 272.8768

EPHEMERIS_TYPE = 0
CLASSIFICATION_TYPE = U
NORAD_CAT_ID   = 66120
ELEMENT_SET_NO = 999
REV_AT_EPOCH   = 509
BSTAR          = -.81102E-4
MEAN_MOTION_DOT = -.4954E-4
MEAN_MOTION_DDOT = 0

CCSDS_OMM_VERS = 2.0
CREATION_DATE  = 
ORIGINATOR     = 

OBJECT_NAME    = STARLINK-35631
OBJECT_ID      = 2025-237H
CENTER_NAME    = EARTH
REF_FRAME      = TEME
TIME_SYSTEM    = UTC
MEAN_ELEMENT_THEORY = SGP/SGP4

EPOCH          = 2025-11-15T12:00:02.998944
MEAN_MOTION    = 15.49488807
ECCENTRICITY   = .0001135
INCLINATION    = 53.1603
RA_OF_ASC_NODE = 215.9773
ARG_OF_PERICENTER = 107.7415
MEAN_ANOMALY   = 251.9373

EPHEMERIS_TYPE = 0
CLASSIFICATION_TYPE = U
NORAD_CAT_ID   = 66121
ELEMENT_SET_NO = 999
REV_AT_EPOCH   = 509
BSTAR          = -.50522E-2
MEAN_MOTION_DOT = -.273554E-2
MEAN_MOTION_DDOT = 0

CCSDS_OMM_VERS = 2.0
CREATION_DATE  = 
ORIGINATOR     = 

OBJECT_NAME    = STARLINK-35653
OBJECT_ID      = 2025-237J
CENTER_NAME    = EARTH
REF_FRAME      = TEME
TIME_SYSTEM    = UTC
MEAN_ELEMENT_THEORY = SGP/SGP4

EPOCH          = 2025-11-15T12:00:02.998944
MEAN_MOTION    = 15.49320407
ECCENTRICITY   = .0001223
INCLINATION    = 53.1603
RA_OF_ASC_NODE = 215.9698
ARG_OF_PERICENTER = 98.2288
MEAN_ANOMALY   = 265.3872

EPHEMERIS_TYPE = 0
CLASSIFICATION_TYPE = U
NORAD_CAT_ID   = 66122
ELEMENT_SET_NO = 999
REV_AT_EPOCH   = 509
BSTAR          = -.10147E-2
MEAN_MOTION_DOT = -.56496E-3
MEAN_MOTION_DDOT = 0

CCSDS_OMM_VERS = 2.0
CREATION_DATE  = 
ORIGINATOR     = 

OBJECT_NAME    = STARLINK-35628
OBJECT_ID      = 2025-237K
CENTER_NAME    = EARTH
REF_FRAME      = TEME
TIME_SYSTEM    = UTC
MEAN_ELEMENT_THEORY = SGP/SGP4

EPOCH          = 2025-11-15T12:00:02.998944
MEAN_MOTION    = 15.49311923
ECCENTRICITY   = .000112
INCLINATION    = 53.1602
RA_OF_ASC_NODE = 215.9659
ARG_OF_PERICENTER = 101.3518
MEAN_ANOMALY   = 264.1850

EPHEMERIS_TYPE = 0
CLASSIFICATION_TYPE = U
NORAD_CAT_ID   = 66123
ELEMENT_SET_NO = 999
REV_AT_EPOCH   = 510
BSTAR          = -.64652E-3
MEAN_MOTION_DOT = -.36242E-3
MEAN_MOTION_DDOT = 0

CCSDS_OMM_VERS = 2.0
CREATION_DATE  = 
ORIGINATOR     = 

OBJECT_NAME    = STARLINK-35645
OBJECT_ID      = 2025-237L
CENTER_NAME    = EARTH
REF_FRAME      = TEME
TIME_SYSTEM    = UTC
MEAN_ELEMENT_THEORY = SGP/SGP4

EPOCH          = 2025-11-15T12:00:02.998944
MEAN_MOTION    = 15.49423203
ECCENTRICITY   = .0000532
INCLINATION    = 53.1603
RA_OF_ASC_NODE = 215.9618
ARG_OF_PERICENTER = 112.3395
MEAN_ANOMALY   = 255.0402

EPHEMERIS_TYPE = 0
CLASSIFICATION_TYPE = U
NORAD_CAT_ID   = 66124
ELEMENT_SET_NO = 999
REV_AT_EPOCH   = 510
BSTAR          = -.21333E-2
MEAN_MOTION_DOT = -.117788E-2
MEAN_MOTION_DDOT = 0

CCSDS_OMM_VERS = 2.0
CREATION_DATE  = 
ORIGINATOR     = 

OBJECT_NAME    = STARLINK-35649
OBJECT_ID      = 2025-237M
CENTER_NAME    = EARTH
REF_FRAME      = TEME
TIME_SYSTEM    = UTC
MEAN_ELEMENT_THEORY = SGP/SGP4

EPOCH          = 2025-11-15T12:00:02.998944
MEAN_MOTION    = 15.49247922
ECCENTRICITY   = .0001229
INCLINATION    = 53.1602
RA_OF_ASC_NODE = 215.9585
ARG_OF_PERICENTER = 90.1701
MEAN_ANOMALY   = 279.1379

EPHEMERIS_TYPE = 0
CLASSIFICATION_TYPE = U
NORAD_CAT_ID   = 66125
ELEMENT_SET_NO = 999
REV_AT_EPOCH   = 510
BSTAR          = .14862E-2
MEAN_MOTION_DOT = .82913E-3
MEAN_MOTION_DDOT = 0

CCSDS_OMM_VERS = 2.0
CREATION_DATE  = 
ORIGINATOR     = 

OBJECT_NAME    = STARLINK-35658
OBJECT_ID      = 2025-237N
CENTER_NAME    = EARTH
REF_FRAME      = TEME
TIME_SYSTEM    = UTC
MEAN_ELEMENT_THEORY = SGP/SGP4

EPOCH          = 2025-11-15T12:00:02.998944
MEAN_MOTION    = 15.49317903
ECCENTRICITY   = .000099
INCLINATION    = 53.1602
RA_OF_ASC_NODE = 215.9532
ARG_OF_PERICENTER = 86.1768
MEAN_ANOMALY   = 285.1085

EPHEMERIS_TYPE = 0
CLASSIFICATION_TYPE = U
NORAD_CAT_ID   = 66126
ELEMENT_SET_NO = 999
REV_AT_EPOCH   = 510
BSTAR          = -.88232E-3
MEAN_MOTION_DOT = -.49226E-3
MEAN_MOTION_DDOT = 0

CCSDS_OMM_VERS = 2.0
CREATION_DATE  = 
ORIGINATOR     = 

OBJECT_NAME    = STARLINK-35629
OBJECT_ID      = 2025-237P
CENTER_NAME    = EARTH
REF_FRAME      = TEME
TIME_SYSTEM    = UTC
MEAN_ELEMENT_THEORY = SGP/SGP4

EPOCH          = 2025-11-15T12:00:02.998944
MEAN_MOTION    = 15.49307090
ECCENTRICITY   = .0001053
INCLINATION    = 53.1602
RA_OF_ASC_NODE = 215.9502
ARG_OF_PERICENTER = 130.5663
MEAN_ANOMALY   = 242.6443

EPHEMERIS_TYPE = 0
CLASSIFICATION_TYPE = U
NORAD_CAT_ID   = 66127
ELEMENT_SET_NO = 999
REV_AT_EPOCH   = 510
BSTAR          = -.57912E-3
MEAN_MOTION_DOT = -.3252E-3
MEAN_MOTION_DDOT = 0

