STARLINK-35573          
1 66116U 25237C   25319.50003471 -.00146145  00000+0 -26627-2 0  9996
2 66116  53.1603 215.9947 0001352  91.9456 260.1516 15.49374885  5091
STARLINK-35572          
1 66117U 25237D   25319.50003471 -.02002992  00000+0 -41984-1 0  9992
2 66117  53.1602 215.9876 0001107 124.3883 231.1377 15.48169454  5091
STARLINK-35468          
1 66118U 25237E   25319.50003471 -.02257199  00000+0 -58380-1 0  9992
2 66118  53.1605 216.0349 0000861  82.7549 248.8194 15.41924983  5095
STARLINK-35547          
1 66119U 25237F   25319.50003471 -.00019631  00000+0 -34587-3 0  9993
2 66119  53.1603 215.9735 0001184 109.3421 252.3642 15.49301909  5098
STARLINK-35553          
1 66120U 25237G   25319.50003471 -.00004954  00000+0 -81102-4 0  9993
2 66120  53.1603 215.9823 0001163  85.0043 272.8768 15.49295235  5095
STARLINK-35631          
1 66121U 25237H   25319.50003471 -.00273554  00000+0 -50522-2 0  9998
2 66121  53.1603 215.9773 0001135 107.7415 251.9373 15.49488807  5093
STARLINK-35653          
1 66122U 25237J   25319.50003471 -.00056496  00000+0 -10147-2 0  9992
2 66122  53.1603 215.9698 0001223  98.2288 265.3872 15.49320407  5094
STARLINK-35628          
1 66123U 25237K   25319.50003471 -.00036242  00000+0 -64652-3 0  9991
2 66123  53.1602 215.9659 0001120 101.3518 264.1850 15.49311923  5107
STARLINK-35645          
1 66124U 25237L   25319.50003471 -.00117788  00000+0 -21333-2 0  9995
2 66124  53.1603 215.9618 0000532 112.3395 255.0402 15.49423203  5102
STARLINK-35649          
1 66125U 25237M   25319.50003471  .00082913  00000+0  14862-2 0  9994
2 66125  53.1602 215.9585 0001229  90.1701 279.1379 15.49247922  5105
STARLINK-35658          
1 66126U 25237N   25319.50003471 -.00049226  00000+0 -88232-3 0  9990
2 66126  53.1602 215.9532 0000990  86.1768 285.1085 15.49317903  5108
STARLINK-35629          
1 66127U 25237P   25319.50003471 -.00032520  00000+0 -57912-3 0  9991
2 66127  53.1602 215.9502 0001053 130.5663 242.6443 15.49307090  5107
